{
  "norad_id": 64420,
  "name": "STARLINK-34503",
  "history": [
    {
      "epoch": "2026-03-28T20:18:34.354944Z",
      "apogee_km": 574.2016269539681,
      "perigee_km": 559.4082061774907,
      "latitude_deg": 3.4765977980072613e-05,
      "longitude_deg": -104.62605221736493,
      "height_km": 571.7379784888416,
      "semi_major_axis_km": 6944.941916565729,
      "eccentricity": 0.00106505,
      "inclination_deg": 70.0029,
      "raan_deg": 26.2779,
      "arg_perigee_deg": 250.2483,
      "mean_anomaly_deg": 109.7529,
      "mean_motion_rev_day": 15.00029621
    },
    {
      "epoch": "2026-03-29T04:00:01.999584Z",
      "apogee_km": 574.1368370293885,
      "perigee_km": 570.0487118760557,
      "latitude_deg": -64.83888535884553,
      "longitude_deg": 88.48436375104276,
      "height_km": 594.1896142714455,
      "semi_major_axis_km": 6950.229774452721,
      "eccentricity": 0.0002941,
      "inclination_deg": 70.0021,
      "raan_deg": 25.4712,
      "arg_perigee_deg": 274.1405,
      "mean_anomaly_deg": 11.6924,
      "mean_motion_rev_day": 14.98318073
    },
    {
      "epoch": "2026-03-30T01:09:36.389376Z",
      "apogee_km": 574.3254781052356,
      "perigee_km": 569.7950615168811,
      "latitude_deg": -5.391197998205514e-06,
      "longitude_deg": 178.40240634500347,
      "height_km": 574.602930884158,
      "semi_major_axis_km": 6950.197269811058,
      "eccentricity": 0.00032592,
      "inclination_deg": 70.0016,
      "raan_deg": 23.2497,
      "arg_perigee_deg": 267.0943,
      "mean_anomaly_deg": 92.9843,
      "mean_motion_rev_day": 14.98328584
    },
    {
      "epoch": "2026-03-30T12:22:33.881952Z",
      "apogee_km": 574.5410229190802,
      "perigee_km": 569.7271261674296,
      "latitude_deg": 1.7117458710064655e-05,
      "longitude_deg": 8.523039105210419,
      "height_km": 574.4213555353953,
      "semi_major_axis_km": 6950.271074543254,
      "eccentricity": 0.00034631,
      "inclination_deg": 70.0016,
      "raan_deg": 22.0705,
      "arg_perigee_deg": 273.3506,
      "mean_anomaly_deg": 86.7257,
      "mean_motion_rev_day": 14.98304718
    },
    {
      "epoch": "2026-03-30T20:23:49.423776Z",
      "apogee_km": 587.4940047470245,
      "perigee_km": 570.2338246177151,
      "latitude_deg": 1.2153306642963092e-05,
      "longitude_deg": -112.96173000696646,
      "height_km": 573.1884686846611,
      "semi_major_axis_km": 6957.0009146823695,
      "eccentricity": 0.00124049,
      "inclination_deg": 70.0033,
      "raan_deg": 21.2299,
      "arg_perigee_deg": 20.404,
      "mean_anomaly_deg": 339.7611,
      "mean_motion_rev_day": 14.96131171
    },
    {
      "epoch": "2026-03-31T16:00:01.999584Z",
      "apogee_km": 574.3191635154135,
      "perigee_km": 569.9460538776211,
      "latitude_deg": 69.869774953813,
      "longitude_deg": 31.01890491134909,
      "height_km": 585.7686588301004,
      "semi_major_axis_km": 6950.269608696517,
      "eccentricity": 0.0003146,
      "inclination_deg": 70.0027,
      "raan_deg": 19.1684,
      "arg_perigee_deg": 271.011,
      "mean_anomaly_deg": 175.8548,
      "mean_motion_rev_day": 14.98305192
    },
    {
      "epoch": "2026-04-01T20:00:01.999008Z",
      "apogee_km": 574.1190097929839,
      "perigee_km": 569.762700993223,
      "latitude_deg": -66.98237267355694,
      "longitude_deg": 124.44856324553544,
      "height_km": 594.5248629623538,
      "semi_major_axis_km": 6950.077855393103,
      "eccentricity": 0.0003134,
      "inclination_deg": 70.0031,
      "raan_deg": 16.2266,
      "arg_perigee_deg": 268.8197,
      "mean_anomaly_deg": 349.2826,
      "mean_motion_rev_day": 14.983672
    },
    {
      "epoch": "2026-04-02T18:53:07.702080Z",
      "apogee_km": 573.8939942221295,
      "perigee_km": 570.082545524132,
      "latitude_deg": 1.2382377293157855e-05,
      "longitude_deg": -100.58914232503153,
      "height_km": 574.3883098517517,
      "semi_major_axis_km": 6950.1252698731305,
      "eccentricity": 0.0002742,
      "inclination_deg": 70.0035,
      "raan_deg": 13.8235,
      "arg_perigee_deg": 270.8245,
      "mean_anomaly_deg": 89.26,
      "mean_motion_rev_day": 14.98351867
    },
    {
      "epoch": "2026-04-02T22:05:10.609152Z",
      "apogee_km": 574.5638633528233,
      "perigee_km": 566.9896863165286,
      "latitude_deg": -1.3741252652574752e-07,
      "longitude_deg": -149.06961205687668,
      "height_km": 572.0757881542659,
      "semi_major_axis_km": 6948.913774834676,
      "eccentricity": 0.00054499,
      "inclination_deg": 70.0037,
      "raan_deg": 13.4866,
      "arg_perigee_deg": 287.3735,
      "mean_anomaly_deg": 72.6828,
      "mean_motion_rev_day": 14.98743725
    },
    {
      "epoch": "2026-04-03T20:00:01.999008Z",
      "apogee_km": 574.2682735162707,
      "perigee_km": 569.8826894404583,
      "latitude_deg": -57.07653034049261,
      "longitude_deg": 92.99765565064102,
      "height_km": 591.6488503944487,
      "semi_major_axis_km": 6950.212481478365,
      "eccentricity": 0.0003155,
      "inclination_deg": 70.0033,
      "raan_deg": 11.1851,
      "arg_perigee_deg": 271.2339,
      "mean_anomaly_deg": 331.8128,
      "mean_motion_rev_day": 14.98323665
    },
    {
      "epoch": "2026-04-04T20:33:18.471456Z",
      "apogee_km": 574.2523222548007,
      "perigee_km": 569.8514626481019,
      "latitude_deg": 3.737864410584907e-05,
      "longitude_deg": -132.89136679575645,
      "height_km": 574.3779640184124,
      "semi_major_axis_km": 6950.1888924514515,
      "eccentricity": 0.0003166,
      "inclination_deg": 70.0028,
      "raan_deg": 8.606,
      "arg_perigee_deg": 272.6497,
      "mean_anomaly_deg": 87.43,
      "mean_motion_rev_day": 14.98331293
    }
  ]
}